[Satellite]
VERSION=1.1
NAME=STARLINK-1369
NICKNAME=STARLINK-1369
TLE1=1 45541U 20025L   20143.91667824  .04016798  00000-0  69338-1 0  9996
TLE2=2 45541  52.9963 251.8237 0003367 358.8215 293.4791 15.46389013  5431
STATUS=0
